QZS-1R                  
1 49336U 21096A   22012.45938955 -.00000308  00000+0  00000+0 0  9998
2 49336  34.1666 104.2960 0762159 270.9355  33.6364  1.00261242   807
CHINASAT 1D (ZX 1D)     
1 49505U 21114A   22012.51992411 -.00000322  00000+0  00000+0 0  9997
2 49505   1.8657 281.3735 0001430 134.5531  13.3533  1.00269728   622
STPSAT-6                
1 49817U 21118A   22012.60522757 -.00000033  00000+0  00000+0 0  9998
2 49817   0.0144  45.9836 0000843 250.9700 281.3127  1.00271122   351
LDPE-1                  
1 49818U 21118B   22012.60164809 -.00000098  00000+0  00000+0 0  9990
2 49818   0.0796 126.2412 0003633  16.2116   1.7230  0.99600773   367
TIANLIAN 2-02           
1 50005U 21124A   22011.73858304 -.00000001  00000+0  00000+0 0  9994
2 50005   2.9348 284.5576 0001991 350.9364 272.4897  1.00270859   398
SHIYAN 12 01 (SY-12 01) 
1 50321U 21129A   22012.62420021 -.00000200  00000+0  00000+0 0  9991
2 50321   0.5018 266.1946 0001244  23.6430 138.6673  1.00129396   285
SHIYAN 12 02 (SY-12 02) 
1 50322U 21129B   22012.44055546 -.00000201  00000+0  00000+0 0  9999
2 50322   0.4999 265.9115 0001612  29.9284  66.3957  1.00129840   289
TJS-9                   
1 50574U 21135A   22012.59310027 -.00000287  00000+0  00000+0 0  9993
2 50574   0.1013 256.6517 0003798 357.7427 208.4130  1.00268034   251
